STARLINK-32098          
1 59704U 24086Y   24155.91667824  .00048473  00000+0  11614-2 0  9995
2 59704  43.0000 129.3676 0000971 242.4519 167.1844 15.40671429  5197
SKYNET-1 01             
1 59705U 24087A   24154.46655869  .00000074  00000+0  00000+0 0  9991
2 59705  53.1439 201.2663 0005638 222.2852 288.5098  2.00593142   363
CZ-3B R/B               
1 59707U 24087C   24154.30847127  .00031744  10399-6  10439-2 0  9993
2 59707  53.2019 190.6355 6090789 233.4744  53.9419  3.97817111  1049
STARLINK-11107 [DTC]    
1 59708U 24088A   24155.91667824  .00075253  00000+0  45984-3 0  9995
2 59708  53.1617 261.0735 0001142 115.8944 255.5823 15.76722830  5059
STARLINK-11088 [DTC]    
1 59709U 24088B   24155.49478940  .00010699  00000+0  69292-4 0  9990
2 59709  53.1642 263.4533 0000700  57.2438 302.8650 15.76725817  4967
STARLINK-11092 [DTC]    
1 59710U 24088C   24155.68287575  .00002439  00000+0  18963-4 0  9997
2 59710  53.1634 262.4898 0001398  53.5799 306.5350 15.76642019  5103
STARLINK-11082 [DTC]    
1 59711U 24088D   24155.68080378  .00005940  00000+0  40265-4 0  9990
2 59711  53.1639 262.4768 0001105  45.6691 314.4420 15.76726772  5109
STARLINK-11108 [DTC]    
1 59712U 24088E   24155.48858747  .00010219  00000+0  66287-4 0  9999
2 59712  53.1639 263.4079 0001351  21.6697 338.4381 15.76754555  4964
STARLINK-11100 [DTC]    
1 59713U 24088F   24155.67670887  .00035704  00000+0  22111-3 0  9991
2 59713  53.1626 262.4461 0002074 136.2118 223.9068 15.76740063  5105
STARLINK-11094 [DTC]    
1 59714U 24088G   24155.48445561  .00015570  00000+0  98799-4 0  9995
2 59714  53.1618 263.3795 0000775 112.4632 247.6471 15.76763756  4924
STARLINK-11101 [DTC]    
1 59715U 24088H   24155.03660242 -.00010767  00000+0 -61935-4 0  9999
2 59715  53.1624 265.5614 0000642 100.7990 259.3103 15.76708100  5000
STARLINK-11099 [DTC]    
1 59716U 24088J   24155.48246791 -.00011909  00000+0 -69202-4 0  9992
2 59716  53.1614 263.3652 0001671  80.8271 279.2939 15.76617138  4963
STARLINK-11084 [DTC]    
1 59717U 24088K   24155.47824905 -.00000569  00000+0  51800-6 0  9997
2 59717  53.1609 263.3354 0001055 149.3652 210.7430 15.76694788  4958
STARLINK-11103 [DTC]    
1 59718U 24088L   24155.47617425  .00008084  00000+0  53291-4 0  9998
2 59718  53.1626 263.3224 0000887  77.2384 282.8736 15.76750667  4955
STARLINK-11096 [DTC]    
1 59719U 24088M   24155.72763323  .00001494  00000+0  13122-4 0  9993
2 59719  53.1626 262.0447 0001357 116.2444 243.8717 15.76741803  5110
STARLINK-11095 [DTC]    
1 59720U 24088N   24155.72573573  .00031558  00000+0  19751-3 0  9998
2 59720  53.1605 262.0287 0002613 136.8286 223.2940 15.76563575  5117
STARLINK-31834          
1 59721U 24088P   24155.91667824 -.00010832  00000+0 -26062-3 0  9990
2 59721  53.1585 263.1518 0000887  61.2447 348.3926 15.39689027  4904
STARLINK-31843          
1 59722U 24088Q   24155.91667824 -.00006989  00000+0 -11771-3 0  9990
2 59722  53.1572 263.0559 0001885  64.1844  35.2303 15.49304722  4905
STARLINK-31766          
1 59723U 24088R   24155.91667824 -.00068808  00000+0 -17233-2 0  9997
2 59723  53.1591 263.2001 0000945  86.2576 297.7241 15.39663897  4854
STARLINK-31836          
1 59724U 24088S   24155.91667824 -.00021797  00000+0 -53662-3 0  9991
2 59724  53.1583 263.2525 0001228  77.6809 280.5946 15.39612782  5002
STARLINK-31820          
1 59725U 24088T   24155.91667824 -.02247238  00000+0 -55579-1 0  9991
2 59725  53.1582 263.1135 0001902  46.7178  23.9418 15.43222229  4902
STARLINK-31642          
1 59726U 24088U   24155.91667824 -.00416044  00000+0 -78384-2 0  9993
2 59726  53.1559 263.0950 0001525  66.2540  14.9261 15.49447981  4908
STARLINK-31827          
1 59727U 24088V   24155.91667824  .00002631  00000+0  55364-4 0  9990
2 59727  53.1562 263.0812 0001237  93.6069 353.3433 15.49302203  5112
SHIYAN 23 (SY-23)       
1 59728U 24089A   24155.92877502  .00001299  00000+0  13937-3 0  9997
2 59728  97.7647 162.8600 0007801 162.3471 197.8020 14.90305442  3402
CZ-4C R/B               
1 59729U 24089B   24155.95557456  .00008902  00000+0  42118-3 0  9995
2 59729  97.7593 163.7515 0103054 318.8838  40.4659 15.14947220  3460
STARLINK-31472          
1 59730U 24090A   24155.91667824  .00002325  00000+0  45470-4 0  9994
2 59730  42.9996 249.0937 0001669 302.8459 210.6743 15.50566837  4634
STARLINK-31817          
1 59731U 24090B   24155.91667824  .00005120  00000+0  93072-4 0  9992
2 59731  42.9996 249.0882 0001779 285.7582 229.6707 15.50570414  4694
STARLINK-31841          
1 59732U 24090C   24155.91667824 -.00009301  00000+0 -15295-3 0  9990
2 59732  42.9996 249.0826 0002087 289.4638 227.8901 15.50569316  4694
STARLINK-31833          
1 59733U 24090D   24155.91667824 -.00017675  00000+0 -29619-3 0  9999
2 59733  42.9996 249.0781 0001604 286.8298 232.4397 15.50573934  4638
STARLINK-31849          
1 59734U 24090E   24155.91667824 -.02200597  00000+0 -50286-1 0  9991
2 59734  42.9995 249.0953 0001189 283.5781 228.7801 15.45824256  4681
STARLINK-31661          
1 59735U 24090F   24155.91667824 -.00004451  00000+0 -99364-4 0  9994
2 59735  42.9996 249.1619 0000794 282.5727 202.3848 15.40696135  4635
STARLINK-31707          
1 59736U 24090G   24155.91667824 -.00052146  00000+0 -88770-3 0  9997
2 59736  42.9996 249.0645 0001735 274.3183 250.6553 15.50617550  4695
STARLINK-31821          
1 59737U 24090H   24155.91667824 -.00006891  00000+0 -11191-3 0  9997
2 59737  42.9995 249.0582 0001776 291.1723 235.8167 15.50537413  4636
STARLINK-31819          
1 59738U 24090J   24155.91667824 -.00043693  00000+0 -74289-3 0  9996
2 59738  42.9996 249.0543 0001703 264.6438 264.2103 15.50586645  4630
STARLINK-31726          
1 59739U 24090K   24155.91667824 -.02050365  00000+0 -38637-1 0  9998
2 59739  42.9997 249.0492 0000758 270.7031 259.9960 15.51015715  4695
STARLINK-31759          
1 59740U 24090L   24155.91667824 -.00005812  00000+0 -93327-4 0  9995
2 59740  42.9995 249.0440 0001727 268.8270 263.8479 15.50573471  4683
STARLINK-31818          
1 59741U 24090M   24155.91667824  .00016416  00000+0  28524-3 0  9992
2 59741  42.9995 249.0389 0001546 284.6307 249.9651 15.50560152  4670
STARLINK-31816          
1 59742U 24090N   24155.91667824 -.00028669  00000+0 -48443-3 0  9990
2 59742  42.9997 248.2929 0001519 265.5457 208.4145 15.50591285  4677
STARLINK-31809          
1 59743U 24090P   24155.91667824  .00005916  00000+0  14879-3 0  9995
2 59743  42.9996 249.1287 0001371 293.1357 204.2514 15.40698236  4583
STARLINK-31779          
1 59744U 24090Q   24155.91667824 -.00022283  00000+0 -37475-3 0  9991
2 59744  42.9996 249.0191 0001664 287.2585 254.9628 15.50602479  4672
STARLINK-31805          
1 59745U 24090R   24155.91667824 -.02201926  00000+0 -46259-1 0  9995
2 59745  42.9996 249.0295 0001396 248.2403 289.8874 15.48222387  4691
STARLINK-31681          
1 59746U 24090S   24155.91667824 -.00149635  00000+0 -36352-2 0  9996
2 59746  42.9996 249.0978 0001507 299.3040 210.4986 15.40784127  4699
STARLINK-31636          
1 59747U 24090T   24155.91667824  .00008445  00000+0  14969-3 0  9999
2 59747  42.9996 249.0053 0002186 292.0864 255.9205 15.50564547  4693
STARLINK-31640          
1 59748U 24090U   24155.91667824 -.00004721  00000+0 -74710-4 0  9996
2 59748  42.9996 249.0095 0001713 288.2358 257.8585 15.50569577  4690
STARLINK-31677          
1 59749U 24090V   24155.91667824 -.00021255  00000+0 -35753-3 0  9991
2 59749  42.9996 248.9997 0001469 270.6998 279.2301 15.50574137  4695
STARLINK-31783          
1 59750U 24090W   24155.91667824  .00022957  00000+0  39629-3 0  9997
2 59750  42.9996 248.9950 0001798 287.0430 264.8008 15.50556881  4694
STARLINK-31808          
1 59751U 24090X   24155.91667824 -.02201410  00000+0 -52108-1 0  9990
2 59751  42.9995 249.0220 0001190 276.2585 264.5458 15.44808856  4694
STARLINK-31822          
1 59752U 24090Y   24155.91667824 -.00004720  00000+0 -74695-4 0  9992
2 59752  42.9996 248.9855 0002120 294.6541 261.0213 15.50568429  4695
STARLINK-11125 [DTC]    
1 59753U 24091A   24154.92376279  .00162398  00000+0  94003-3 0  9993
2 59753  53.1601 146.3450 0000475  64.7839 295.3231 15.77607702  4228
STARLINK-11118 [DTC]    
1 59754U 24091B   24155.87337556  .00193702  00000+0  11519-2 0  9997
2 59754  53.1605 141.5986 0000640 351.5341   8.5669 15.76901295  4371
STARLINK-11132 [DTC]    
1 59755U 24091C   24155.93475295  .00234743  00000+0  13874-2 0  9995
2 59755  53.1611 141.2714 0001218  99.4891 260.6267 15.76917358  4388
STARLINK-11131 [DTC]    
1 59756U 24091D   24155.93275948  .00019245  00000+0  12126-3 0  9997
2 59756  53.1605 141.2565 0001343  59.9384 300.1770 15.76739517  4381
STARLINK-11114 [DTC]    
1 59757U 24091E   24155.86735580  .00071812  00000+0  43982-3 0  9995
2 59757  53.1606 141.5583 0002163 350.2038   9.8941 15.76688135  4371
STARLINK-11105 [DTC]    
1 59758U 24091F   24155.86532916  .00134990  00000+0  81275-3 0  9998
2 59758  53.1603 141.5448 0001231 105.0553 255.0605 15.76811829  4372
STARLINK-11097 [DTC]    
1 59759U 24091G   24155.86333266  .00085065  00000+0  51937-3 0  9996
2 59759  53.1604 141.5317 0001720  41.9507 318.1646 15.76692123  4379
STARLINK-11098 [DTC]    
1 59760U 24091H   24155.86128965  .00131341  00000+0  79094-3 0  9999
2 59760  53.1602 141.5178 0000757  20.8791 339.2261 15.76820152  4376
STARLINK-11117 [DTC]    
1 59761U 24091J   24155.92266947  .00034444  00000+0  21378-3 0  9998
2 59761  53.1594 141.1868 0001331 118.6209 241.4946 15.76708832  4383
STARLINK-11110 [DTC]    
1 59762U 24091K   24155.92065124  .00089249  00000+0  54311-3 0  9999
2 59762  53.1594 141.1765 0000988 132.8408 227.2696 15.76748648  4389
